SL-4 R/B                
1 67235U 25310B   26016.54465405  .00270919  24394-5  54316-3 0  9999
2 67235  97.9607  28.5196 0261979 357.1992   2.7779 15.60230980  3418
HULIANWANG DIGUI-128    
1 67236U 25311A   26015.63446950 -.00000045  00000+0  81614-4 0  9990
2 67236  50.0101 313.4332 0006567 346.4900  13.5822 13.90210717  2882
HULIANWANG DIGUI-129    
1 67237U 25311B   26015.63576530 -.00000051  00000+0  76372-4 0  9991
2 67237  50.0090 313.4372 0007815 348.0369  12.0343 13.90166973  2884
HULIANWANG DIGUI-130    
1 67238U 25311C   26015.64239403 -.00000042  00000+0  84076-4 0  9998
2 67238  50.0071 313.4663 0007766 325.4977  34.5417 13.90218602  2884
HULIANWANG DIGUI-131    
1 67239U 25311D   26015.64550628 -.00000046  00000+0  80418-4 0  9994
2 67239  50.0066 313.4811 0009377 332.8334  27.2073 13.90205630  2887
HULIANWANG DIGUI-132    
1 67240U 25311E   26015.63931270 -.00000053  00000+0  74510-4 0  9995
2 67240  50.0078 313.4522 0008465 339.4838  20.5719 13.90231481  2886
HULIANWANG DIGUI-133    
1 67241U 25311F   26015.42184621 -.00000039  00000+0  86446-4 0  9998
2 67241  50.0122 314.3128 0007586 342.9599  17.1044 13.90209467  2854
HULIANWANG DIGUI-134    
1 67242U 25311G   26015.63859553 -.00000043  00000+0  83320-4 0  9998
2 67242  50.0053 313.4415 0006701 332.6519  27.4026 13.90195582  2882
HULIANWANG DIGUI-135    
1 67243U 25311H   26015.78445648 -.00000047  00000+0  79456-4 0  9990
2 67243  50.0039 312.8763 0007921 335.6159  24.4364 13.90184579  2903
HULIANWANG DIGUI-136    
1 67244U 25311J   26015.63634515 -.00000045  00000+0  81176-4 0  9998
2 67244  50.0111 313.4448 0006845 341.4891  18.5758 13.90230435  2885
CZ-8A R/B               
1 67245U 25311K   26016.59843779 -.00000243  00000+0 -45596-4 0  9996
2 67245  50.0053 306.5121 0088964 156.6408 203.8580 14.12608409  3062
FENGYUN 4C              
1 67246U 25312A   26016.61176080 -.00000305  00000+0  00000+0 0  9999
2 67246   0.0728 237.0020 0002428  48.7926 183.5477  1.00268791   267
